[{"OBJECT_NAME":"STARLINK-33997","OBJECT_ID":"2025-098C","EPOCH":"2026-02-27T01:10:19.106400","MEAN_MOTION":14.98338913,"ECCENTRICITY":0.0002945,"INCLINATION":70.0015,"RA_OF_ASC_NODE":301.4795,"ARG_OF_PERICENTER":271.4599,"MEAN_ANOMALY":88.6223,"EPHEMERIS_TYPE":0,"CLASSIFICATION_TYPE":"U","NORAD_CAT_ID":63928,"ELEMENT_SET_NO":999,"REV_AT_EPOCH":4497,"BSTAR":0.00053662865,"MEAN_MOTION_DOT":6.317e-5,"MEAN_MOTION_DDOT":0},{"OBJECT_NAME":"STARLINK-33989","OBJECT_ID":"2025-098D","EPOCH":"2026-02-27T02:10:37.679232","MEAN_MOTION":14.98332065,"ECCENTRICITY":0.00029183,"INCLINATION":70.0018,"RA_OF_ASC_NODE":301.2308,"ARG_OF_PERICENTER":271.0898,"MEAN_ANOMALY":88.9926,"EPHEMERIS_TYPE":0,"CLASSIFICATION_TYPE":"U","NORAD_CAT_ID":63929,"ELEMENT_SET_NO":999,"REV_AT_EPOCH":4498,"BSTAR":0.00050631907,"MEAN_MOTION_DOT":5.954e-5,"MEAN_MOTION_DDOT":0},{"OBJECT_NAME":"STARLINK-33980","OBJECT_ID":"2025-098E","EPOCH":"2026-02-27T01:04:19.307424","MEAN_MOTION":14.9834149,"ECCENTRICITY":0.00029439,"INCLINATION":70.0099,"RA_OF_ASC_NODE":301.4598,"ARG_OF_PERICENTER":337.4168,"MEAN_ANOMALY":22.6862,"EPHEMERIS_TYPE":0,"CLASSIFICATION_TYPE":"U","NORAD_CAT_ID":63930,"ELEMENT_SET_NO":999,"REV_AT_EPOCH":4497,"BSTAR":0.00061852694,"MEAN_MOTION_DOT":7.297e-5,"MEAN_MOTION_DDOT":0},{"OBJECT_NAME":"STARLINK-33994","OBJECT_ID":"2025-098F","EPOCH":"2026-02-27T02:04:37.265088","MEAN_MOTION":14.98337118,"ECCENTRICITY":0.00023932,"INCLINATION":70.0009,"RA_OF_ASC_NODE":301.2143,"ARG_OF_PERICENTER":281.2393,"MEAN_ANOMALY":78.8497,"EPHEMERIS_TYPE":0,"CLASSIFICATION_TYPE":"U","NORAD_CAT_ID":63931,"ELEMENT_SET_NO":999,"REV_AT_EPOCH":4498,"BSTAR":0.00028616264,"MEAN_MOTION_DOT":3.324e-5,"MEAN_MOTION_DDOT":0},{"OBJECT_NAME":"STARLINK-33971","OBJECT_ID":"2025-098G","EPOCH":"2026-02-27T02:34:40.332000","MEAN_MOTION":14.98341863,"ECCENTRICITY":0.00024523,"INCLINATION":70.0016,"RA_OF_ASC_NODE":301.2883,"ARG_OF_PERICENTER":273.432,"MEAN_ANOMALY":86.6559,"EPHEMERIS_TYPE":0,"CLASSIFICATION_TYPE":"U","NORAD_CAT_ID":63932,"ELEMENT_SET_NO":999,"REV_AT_EPOCH":4498,"BSTAR":0.00032473344,"MEAN_MOTION_DOT":3.785e-5,"MEAN_MOTION_DDOT":0},{"OBJECT_NAME":"STARLINK-33877","OBJECT_ID":"2025-098H","EPOCH":"2026-02-27T01:28:36.199776","MEAN_MOTION":14.98286238,"ECCENTRICITY":0.00024931,"INCLINATION":70.0039,"RA_OF_ASC_NODE":301.1073,"ARG_OF_PERICENTER":337.0091,"MEAN_ANOMALY":23.0957,"EPHEMERIS_TYPE":0,"CLASSIFICATION_TYPE":"U","NORAD_CAT_ID":63933,"ELEMENT_SET_NO":999,"REV_AT_EPOCH":4498,"BSTAR":0.0026651135,"MEAN_MOTION_DOT":0.00031815,"MEAN_MOTION_DDOT":0},{"OBJECT_NAME":"STARLINK-33895","OBJECT_ID":"2025-098J","EPOCH":"2026-02-27T01:40:33.816576","MEAN_MOTION":14.98352326,"ECCENTRICITY":0.00045642,"INCLINATION":70.0054,"RA_OF_ASC_NODE":301.1573,"ARG_OF_PERICENTER":267.1436,"MEAN_ANOMALY":92.9201,"EPHEMERIS_TYPE":0,"CLASSIFICATION_TYPE":"U","NORAD_CAT_ID":63934,"ELEMENT_SET_NO":999,"REV_AT_EPOCH":4498,"BSTAR":0.00025662731,"MEAN_MOTION_DOT":2.972e-5,"MEAN_MOTION_DDOT":0},{"OBJECT_NAME":"STARLINK-34005","OBJECT_ID":"2025-098K","EPOCH":"2026-02-27T02:40:40.370304","MEAN_MOTION":14.9834444,"ECCENTRICITY":0.00033758,"INCLINATION":70.0003,"RA_OF_ASC_NODE":301.29,"ARG_OF_PERICENTER":261.3257,"MEAN_ANOMALY":98.752,"EPHEMERIS_TYPE":0,"CLASSIFICATION_TYPE":"U","NORAD_CAT_ID":63935,"ELEMENT_SET_NO":999,"REV_AT_EPOCH":4497,"BSTAR":0.00018930128,"MEAN_MOTION_DOT":2.167e-5,"MEAN_MOTION_DDOT":0},{"OBJECT_NAME":"STARLINK-34027","OBJECT_ID":"2025-098L","EPOCH":"2026-02-27T02:52:39.750528","MEAN_MOTION":14.98340264,"ECCENTRICITY":0.00029081,"INCLINATION":70.0053,"RA_OF_ASC_NODE":300.9238,"ARG_OF_PERICENTER":275.3458,"MEAN_ANOMALY":84.7369,"EPHEMERIS_TYPE":0,"CLASSIFICATION_TYPE":"U","NORAD_CAT_ID":63936,"ELEMENT_SET_NO":999,"REV_AT_EPOCH":4497,"BSTAR":0.00059638386,"MEAN_MOTION_DOT":7.032e-5,"MEAN_MOTION_DDOT":0},{"OBJECT_NAME":"STARLINK-34035","OBJECT_ID":"2025-098M","EPOCH":"2026-02-27T01:58:38.011296","MEAN_MOTION":14.98346884,"ECCENTRICITY":0.00030341,"INCLINATION":70.0024,"RA_OF_ASC_NODE":301.2,"ARG_OF_PERICENTER":267.9948,"MEAN_ANOMALY":92.0864,"EPHEMERIS_TYPE":0,"CLASSIFICATION_TYPE":"U","NORAD_CAT_ID":63937,"ELEMENT_SET_NO":999,"REV_AT_EPOCH":4496,"BSTAR":0.00061292085,"MEAN_MOTION_DOT":7.231e-5,"MEAN_MOTION_DDOT":0},{"OBJECT_NAME":"STARLINK-33988","OBJECT_ID":"2025-098N","EPOCH":"2026-02-27T02:16:23.099520","MEAN_MOTION":14.98606143,"ECCENTRICITY":0.00039654,"INCLINATION":70.0028,"RA_OF_ASC_NODE":301.2453,"ARG_OF_PERICENTER":263.1132,"MEAN_ANOMALY":96.9576,"EPHEMERIS_TYPE":0,"CLASSIFICATION_TYPE":"U","NORAD_CAT_ID":63938,"ELEMENT_SET_NO":999,"REV_AT_EPOCH":4496,"BSTAR":0.01243789,"MEAN_MOTION_DOT":0.00152686,"MEAN_MOTION_DDOT":0},{"OBJECT_NAME":"STARLINK-34020","OBJECT_ID":"2025-098P","EPOCH":"2026-02-27T01:34:34.133376","MEAN_MOTION":14.98374736,"ECCENTRICITY":0.00030293,"INCLINATION":69.9994,"RA_OF_ASC_NODE":301.1394,"ARG_OF_PERICENTER":261.6095,"MEAN_ANOMALY":98.4721,"EPHEMERIS_TYPE":0,"CLASSIFICATION_TYPE":"U","NORAD_CAT_ID":63939,"ELEMENT_SET_NO":999,"REV_AT_EPOCH":4496,"BSTAR":0.0013831803,"MEAN_MOTION_DOT":0.00016469,"MEAN_MOTION_DDOT":0},{"OBJECT_NAME":"STARLINK-34021","OBJECT_ID":"2025-098Q","EPOCH":"2026-02-27T02:46:31.511136","MEAN_MOTION":14.98289978,"ECCENTRICITY":0.00014767,"INCLINATION":70.0041,"RA_OF_ASC_NODE":301.3242,"ARG_OF_PERICENTER":243.7844,"MEAN_ANOMALY":116.3164,"EPHEMERIS_TYPE":0,"CLASSIFICATION_TYPE":"U","NORAD_CAT_ID":63940,"ELEMENT_SET_NO":999,"REV_AT_EPOCH":4496,"BSTAR":-0.0068624896,"MEAN_MOTION_DOT":-0.00080945,"MEAN_MOTION_DDOT":0},{"OBJECT_NAME":"STARLINK-34004","OBJECT_ID":"2025-098R","EPOCH":"2026-02-27T01:46:35.121504","MEAN_MOTION":14.98335858,"ECCENTRICITY":0.00027956,"INCLINATION":70.0008,"RA_OF_ASC_NODE":301.1619,"ARG_OF_PERICENTER":269.1978,"MEAN_ANOMALY":90.8861,"EPHEMERIS_TYPE":0,"CLASSIFICATION_TYPE":"U","NORAD_CAT_ID":63941,"ELEMENT_SET_NO":999,"REV_AT_EPOCH":4496,"BSTAR":0.00026126791,"MEAN_MOTION_DOT":3.026e-5,"MEAN_MOTION_DDOT":0},{"OBJECT_NAME":"STARLINK-34014","OBJECT_ID":"2025-098S","EPOCH":"2026-02-27T01:52:23.339424","MEAN_MOTION":14.98326941,"ECCENTRICITY":0.00026051,"INCLINATION":70.0009,"RA_OF_ASC_NODE":301.1836,"ARG_OF_PERICENTER":262.3563,"MEAN_ANOMALY":97.73,"EPHEMERIS_TYPE":0,"CLASSIFICATION_TYPE":"U","NORAD_CAT_ID":63942,"ELEMENT_SET_NO":999,"REV_AT_EPOCH":4495,"BSTAR":0.00054901473,"MEAN_MOTION_DOT":6.463e-5,"MEAN_MOTION_DDOT":0},{"OBJECT_NAME":"STARLINK-33985","OBJECT_ID":"2025-098T","EPOCH":"2026-02-27T01:28:18.837696","MEAN_MOTION":14.98338004,"ECCENTRICITY":0.00020193,"INCLINATION":70.0029,"RA_OF_ASC_NODE":301.1104,"ARG_OF_PERICENTER":268.7346,"MEAN_ANOMALY":91.3582,"EPHEMERIS_TYPE":0,"CLASSIFICATION_TYPE":"U","NORAD_CAT_ID":63943,"ELEMENT_SET_NO":999,"REV_AT_EPOCH":4496,"BSTAR":0.00025274785,"MEAN_MOTION_DOT":2.925e-5,"MEAN_MOTION_DDOT":0}]
