STARLINK-33997          
1 63928U 25098C   26058.04883225  .00006317  00000+0  53663-3 0  9997
2 63928  70.0015 301.4795 0002945 271.4599  88.6223 14.98338913 44971
STARLINK-33989          
1 63929U 25098D   26058.09071388  .00005954  00000+0  50632-3 0  9991
2 63929  70.0018 301.2308 0002918 271.0898  88.9926 14.98332065 44987
STARLINK-33980          
1 63930U 25098E   26058.04466791  .00007297  00000+0  61853-3 0  9993
2 63930  70.0099 301.4598 0002943 337.4168  22.6862 14.98341490 44971
STARLINK-33994          
1 63931U 25098F   26058.08654242  .00003324  00000+0  28616-3 0  9995
2 63931  70.0009 301.2143 0002393 281.2393  78.8497 14.98337118 44982
STARLINK-33971          
1 63932U 25098G   26058.10741125  .00003785  00000+0  32473-3 0  9993
2 63932  70.0016 301.2883 0002452 273.4320  86.6559 14.98341863 44989
STARLINK-33877          
1 63933U 25098H   26058.06153009  .00031815  00000+0  26651-2 0  9992
2 63933  70.0039 301.1073 0002493 337.0091  23.0957 14.98286238 44983
STARLINK-33895          
1 63934U 25098J   26058.06983584  .00002972  00000+0  25663-3 0  9997
2 63934  70.0054 301.1573 0004564 267.1436  92.9201 14.98352326 44982
STARLINK-34005          
1 63935U 25098K   26058.11157836  .00002167  00000+0  18930-3 0  9992
2 63935  70.0003 301.2900 0003375 261.3257  98.7520 14.98344440 44973
STARLINK-34027          
1 63936U 25098L   26058.11990452  .00007032  00000+0  59638-3 0  9998
2 63936  70.0053 300.9238 0002908 275.3458  84.7369 14.98340264 44974
STARLINK-34035          
1 63937U 25098M   26058.08238439  .00007231  00000+0  61292-3 0  9995
2 63937  70.0024 301.2000 0003034 267.9948  92.0864 14.98346884 44961
STARLINK-33988          
1 63938U 25098N   26058.09471180  .00152686  00000+0  12438-1 0  9990
2 63938  70.0028 301.2453 0003965 263.1132  96.9576 14.98606143 44964
STARLINK-34020          
1 63939U 25098P   26058.06567284  .00016469  00000+0  13832-2 0  9997
2 63939  69.9994 301.1394 0003029 261.6095  98.4721 14.98374736 44968
STARLINK-34021          
1 63940U 25098Q   26058.11564249 -.00080945  00000+0 -68625-2 0  9995
2 63940  70.0041 301.3242 0001476 243.7844 116.3164 14.98289978 44961
STARLINK-34004          
1 63941U 25098R   26058.07401761  .00003026  00000+0  26127-3 0  9995
2 63941  70.0008 301.1619 0002795 269.1978  90.8861 14.98335858 44965
STARLINK-34014          
1 63942U 25098S   26058.07804791  .00006463  00000+0  54901-3 0  9995
2 63942  70.0009 301.1836 0002605 262.3563  97.7300 14.98326941 44959
STARLINK-33985          
1 63943U 25098T   26058.06132914  .00002925  00000+0  25275-3 0  9997
2 63943  70.0029 301.1104 0002019 268.7346  91.3582 14.98338004 44964
